CCSDS_OMM_VERS,COMMENT,CREATION_DATE,ORIGINATOR,OBJECT_NAME,OBJECT_ID,CENTER_NAME,REF_FRAME,TIME_SYSTEM,MEAN_ELEMENT_THEORY,EPOCH,MEAN_MOTION,ECCENTRICITY,INCLINATION,RA_OF_ASC_NODE,ARG_OF_PERICENTER,MEAN_ANOMALY,EPHEMERIS_TYPE,CLASSIFICATION_TYPE,NORAD_CAT_ID,ELEMENT_SET_NO,REV_AT_EPOCH,BSTAR,MEAN_MOTION_DOT,MEAN_MOTION_DDOT,SEMIMAJOR_AXIS,PERIOD,APOAPSIS,PERIAPSIS,OBJECT_TYPE,RCS_SIZE,COUNTRY_CODE,LAUNCH_DATE,SITE,DECAY_DATE,FILE,GP_ID,TLE_LINE0,TLE_LINE1,TLE_LINE2
2,GENERATED VIA SPACE-TRACK.ORG API,2023-03-12T18:31:26,18 SPCS,KSF3-C,2023-001K,EARTH,TEME,UTC,SGP4,2023-03-12T02:55:19.593984,15.14123456,0.0010468,97.4892,132.1011,357.3497,2.7678,0,U,55018,999,1036,0.0010453,0.00019036,0,6901.778,95.105,530.868,516.418,PAYLOAD,MEDIUM,LUXE,2023-01-03,AFETR,,3858534,227934716,0 KSF3-C,1 55018U 23001K   23071.12175456  .00019036  00000-0  10453-2 0  9993,2 55018  97.4892 132.1011 0010468 357.3497   2.7678 15.14123456 10368
2,GENERATED VIA SPACE-TRACK.ORG API,2023-03-13T21:09:05,18 SPCS,KSF3-C,2023-001K,EARTH,TEME,UTC,SGP4,2023-03-13T02:42:46.619712,15.14164744,0.0010339,97.4895,133.0766,353.8217,6.2885,0,U,55018,999,1051,0.0010607,0.0001934,0,6901.652,95.102,530.653,516.382,PAYLOAD,MEDIUM,LUXE,2023-01-03,AFETR,,3859425,228006485,0 KSF3-C,1 55018U 23001K   23072.11303958  .00019340  00000-0  10607-2 0  9992,2 55018  97.4895 133.0766 0010339 353.8217   6.2885 15.14164744 10517
2,GENERATED VIA SPACE-TRACK.ORG API,2023-03-13T07:16:19,18 SPCS,KSF3-C,2023-001K,EARTH,TEME,UTC,SGP4,2023-03-13T02:42:46.619712,15.14164744,0.0010339,97.4895,133.0766,353.8217,6.2885,0,U,55018,999,1051,0.0010607,0.0001934,0,6901.652,95.102,530.653,516.382,PAYLOAD,MEDIUM,LUXE,2023-01-03,AFETR,,3858923,227971100,0 KSF3-C,1 55018U 23001K   23072.11303958  .00019340  00000-0  10607-2 0  9992,2 55018  97.4895 133.0766 0010339 353.8217   6.2885 15.14164744 10517
2,GENERATED VIA SPACE-TRACK.ORG API,2023-03-14T19:41:11,18 SPCS,KSF3-C,2023-001K,EARTH,TEME,UTC,SGP4,2023-03-14T04:05:21.276960,15.14199806,0.0010224,97.4898,134.1173,350.5693,9.5345,0,U,55018,999,1067,0.00091203,0.0001663,0,6901.546,95.1,530.467,516.355,PAYLOAD,MEDIUM,LUXE,2023-01-03,AFETR,,3860373,228078575,0 KSF3-C,1 55018U 23001K   23073.17038515  .00016630  00000-0  91203-3 0  9994,2 55018  97.4898 134.1173 0010224 350.5693   9.5345 15.14199806 10670
2,GENERATED VIA SPACE-TRACK.ORG API,2023-03-14T07:56:13,18 SPCS,KSF3-C,2023-001K,EARTH,TEME,UTC,SGP4,2023-03-14T04:05:21.276960,15.14199806,0.0010224,97.4898,134.1173,350.5693,9.5345,0,U,55018,999,1067,0.00091203,0.0001663,0,6901.546,95.1,530.467,516.355,PAYLOAD,MEDIUM,LUXE,2023-01-03,AFETR,,3859928,228043997,0 KSF3-C,1 55018U 23001K   23073.17038515  .00016630  00000-0  91203-3 0  9994,2 55018  97.4898 134.1173 0010224 350.5693   9.5345 15.14199806 10670
2,GENERATED VIA SPACE-TRACK.ORG API,2023-03-15T03:17:22,18 SPCS,KSF3-C,2023-001K,EARTH,TEME,UTC,SGP4,2023-03-14T21:32:06.309600,15.14227985,0.0010113,97.4897,134.8327,348.2332,11.8662,0,U,55018,999,1078,0.0010647,0.00019447,0,6901.46,95.098,530.305,516.346,PAYLOAD,MEDIUM,LUXE,2023-01-03,AFETR,,3860643,228110519,0 KSF3-C,1 55018U 23001K   23073.89729525  .00019447  00000-0  10647-2 0  9992,2 55018  97.4897 134.8327 0010113 348.2332  11.8662 15.14227985 10788
2,GENERATED VIA SPACE-TRACK.ORG API,2023-03-15T20:50:11,18 SPCS,KSF3-C,2023-001K,EARTH,TEME,UTC,SGP4,2023-03-15T03:52:44.213376,15.14238863,0.0010068,97.4899,135.093,347.5904,12.5078,0,U,55018,999,1082,0.0010875,0.00019872,0,6901.427,95.097,530.241,516.344,PAYLOAD,MEDIUM,LUXE,2023-01-03,AFETR,,3861350,228151461,0 KSF3-C,1 55018U 23001K   23074.16162284  .00019872  00000-0  10875-2 0  9991,2 55018  97.4899 135.0930 0010068 347.5904  12.5078 15.14238863 10820
2,GENERATED VIA SPACE-TRACK.ORG API,2023-03-15T22:56:13,18 SPCS,KSF3-C,2023-001K,EARTH,TEME,UTC,SGP4,2023-03-15T03:52:44.213376,15.14238863,0.0010068,97.4899,135.093,347.5904,12.5078,0,U,55018,999,1082,0.0010875,0.00019872,0,6901.427,95.097,530.241,516.344,PAYLOAD,MEDIUM,LUXE,2023-01-03,AFETR,,3861496,228183232,0 KSF3-C,1 55018U 23001K   23074.16162284  .00019872  00000-0  10875-2 0  9991,2 55018  97.4899 135.0930 0010068 347.5904  12.5078 15.14238863 10820
2,GENERATED VIA SPACE-TRACK.ORG API,2023-03-16T02:36:09,18 SPCS,KSF3-C,2023-001K,EARTH,TEME,UTC,SGP4,2023-03-15T21:19:27.517152,15.14268531,0.0009986,97.49,135.8085,345.0139,15.0795,0,U,55018,999,1093,0.0010676,0.00019522,0,6901.337,95.095,530.094,516.31,PAYLOAD,MEDIUM,LUXE,2023-01-03,AFETR,,3861599,228211358,0 KSF3-C,1 55018U 23001K   23074.88851293  .00019522  00000-0  10676-2 0  9996,2 55018  97.4900 135.8085 0009986 345.0139  15.0795 15.14268531 10933
2,GENERATED VIA SPACE-TRACK.ORG API,2023-03-16T20:43:51,18 SPCS,KSF3-C,2023-001K,EARTH,TEME,UTC,SGP4,2023-03-16T10:00:41.840352,15.14292026,0.0009936,97.4899,136.3288,343.0468,17.043,0,U,55018,999,1101,0.0011279,0.00020645,0,6901.266,95.094,529.988,516.274,PAYLOAD,MEDIUM,LUXE,2023-01-03,AFETR,,3862295,228251518,0 KSF3-C,1 55018U 23001K   23075.41715093  .00020645  00000-0  11279-2 0  9991,2 55018  97.4899 136.3288 0009936 343.0468  17.0430 15.14292026 11013
2,GENERATED VIA SPACE-TRACK.ORG API,2023-03-16T15:06:14,18 SPCS,KSF3-C,2023-001K,EARTH,TEME,UTC,SGP4,2023-03-16T10:00:41.840352,15.14292026,0.0009936,97.4899,136.3288,343.0468,17.043,0,U,55018,999,1101,0.0011279,0.00020645,0,6901.266,95.094,529.988,516.274,PAYLOAD,MEDIUM,LUXE,2023-01-03,AFETR,,3862222,228224939,0 KSF3-C,1 55018U 23001K   23075.41715093  .00020645  00000-0  11279-2 0  9991,2 55018  97.4899 136.3288 0009936 343.0468  17.0430 15.14292026 11013
2,GENERATED VIA SPACE-TRACK.ORG API,2023-03-17T17:54:48,18 SPCS,KSF3-C,2023-001K,EARTH,TEME,UTC,SGP4,2023-03-17T09:47:59.888256,15.14316545,0.000984,97.4898,137.3046,338.8234,21.2589,0,U,55018,999,1116,0.00069058,0.00012609,0,6901.191,95.092,529.847,516.265,PAYLOAD,MEDIUM,LUXE,2023-01-03,AFETR,,3863278,228327266,0 KSF3-C,1 55018U 23001K   23076.40833204  .00012609  00000-0  69058-3 0  9996,2 55018  97.4898 137.3046 0009840 338.8234  21.2589 15.14316545 11163
2,GENERATED VIA SPACE-TRACK.ORG API,2023-03-17T16:16:13,18 SPCS,KSF3-C,2023-001K,EARTH,TEME,UTC,SGP4,2023-03-17T09:47:59.888256,15.14316545,0.000984,97.4898,137.3046,338.8234,21.2589,0,U,55018,999,1116,0.00069058,0.00012609,0,6901.191,95.092,529.847,516.265,PAYLOAD,MEDIUM,LUXE,2023-01-03,AFETR,,3863209,228299606,0 KSF3-C,1 55018U 23001K   23076.40833204  .00012609  00000-0  69058-3 0  9996,2 55018  97.4898 137.3046 0009840 338.8234  21.2589 15.14316545 11163
2,GENERATED VIA SPACE-TRACK.ORG API,2023-03-18T04:38:25,18 SPCS,KSF3-C,2023-001K,EARTH,TEME,UTC,SGP4,2023-03-17T14:33:27.311040,15.14323311,0.0009831,97.4897,137.4997,337.9964,22.0844,0,U,55018,999,1119,0.00072901,0.00013318,0,6901.171,95.092,529.82,516.251,PAYLOAD,MEDIUM,LUXE,2023-01-03,AFETR,,3863544,228357815,0 KSF3-C,1 55018U 23001K   23076.60656610  .00013318  00000-0  72901-3 0  9991,2 55018  97.4897 137.4997 0009831 337.9964  22.0844 15.14323311 11193
2,GENERATED VIA SPACE-TRACK.ORG API,2023-03-19T02:36:28,18 SPCS,KSF3-C,2023-001K,EARTH,TEME,UTC,SGP4,2023-03-18T17:31:01.703712,15.14351673,0.0009795,97.4894,138.6052,333.2474,26.8251,0,U,55018,999,1136,0.00071065,0.00012991,0,6901.085,95.09,529.709,516.19,PAYLOAD,MEDIUM,LUXE,2023-01-03,AFETR,,3864479,228406888,0 KSF3-C,1 55018U 23001K   23077.72988083  .00012991  00000-0  71065-3 0  9993,2 55018  97.4894 138.6052 0009795 333.2474  26.8251 15.14351673 11364
2,GENERATED VIA SPACE-TRACK.ORG API,2023-03-18T23:06:13,18 SPCS,KSF3-C,2023-001K,EARTH,TEME,UTC,SGP4,2023-03-18T17:31:01.703712,15.14351673,0.0009795,97.4894,138.6052,333.2474,26.8251,0,U,55018,999,1136,0.00071065,0.00012991,0,6901.085,95.09,529.709,516.19,PAYLOAD,MEDIUM,LUXE,2023-01-03,AFETR,,3864403,228379854,0 KSF3-C,1 55018U 23001K   23077.72988083  .00012991  00000-0  71065-3 0  9993,2 55018  97.4894 138.6052 0009795 333.2474  26.8251 15.14351673 11364
2,GENERATED VIA SPACE-TRACK.ORG API,2023-03-19T20:45:28,18 SPCS,KSF3-C,2023-001K,EARTH,TEME,UTC,SGP4,2023-03-19T03:01:55.731936,15.14362141,0.0009787,97.4894,138.9954,331.5771,28.4925,0,U,55018,999,1142,0.00069971,0.00012793,0,6901.053,95.09,529.672,516.164,PAYLOAD,MEDIUM,LUXE,2023-01-03,AFETR,,3865049,228446762,0 KSF3-C,1 55018U 23001K   23078.12633949  .00012793  00000-0  69971-3 0  9999,2 55018  97.4894 138.9954 0009787 331.5771  28.4925 15.14362141 11425
2,GENERATED VIA SPACE-TRACK.ORG API,2023-03-20T02:13:27,18 SPCS,KSF3-C,2023-001K,EARTH,TEME,UTC,SGP4,2023-03-19T17:18:16.299072,15.14380604,0.0009764,97.4892,139.5807,329.3334,30.7326,0,U,55018,999,1151,0.00078981,0.0001446,0,6900.997,95.088,529.6,516.124,PAYLOAD,MEDIUM,LUXE,2023-01-03,AFETR,,3865354,228479951,0 KSF3-C,1 55018U 23001K   23078.72102198  .00014460  00000-0  78981-3 0  9996,2 55018  97.4892 139.5807 0009764 329.3334  30.7326 15.14380604 11517
2,GENERATED VIA SPACE-TRACK.ORG API,2023-03-20T08:26:12,18 SPCS,KSF3-C,2023-001K,EARTH,TEME,UTC,SGP4,2023-03-20T02:49:09.694848,15.14391704,0.0009722,97.489,139.9707,327.9235,32.1404,0,U,55018,999,1157,0.00077388,0.00014171,0,6900.963,95.088,529.537,516.119,PAYLOAD,MEDIUM,LUXE,2023-01-03,AFETR,,3865566,228485987,0 KSF3-C,1 55018U 23001K   23079.11747332  .00014171  00000-0  77388-3 0  9994,2 55018  97.4890 139.9707 0009722 327.9235  32.1404 15.14391704 11578
2,GENERATED VIA SPACE-TRACK.ORG API,2023-03-20T18:47:05,18 SPCS,KSF3-C,2023-001K,EARTH,TEME,UTC,SGP4,2023-03-20T10:44:53.971296,15.14402021,0.0009704,97.4889,140.296,326.999,33.0635,0,U,55018,999,1162,0.00081,0.00014841,0,6900.932,95.087,529.493,516.1,PAYLOAD,MEDIUM,LUXE,2023-01-03,AFETR,,3865912,228518852,0 KSF3-C,1 55018U 23001K   23079.44784689  .00014841  00000-0  81000-3 0  9996,2 55018  97.4889 140.2960 0009704 326.9990  33.0635 15.14402021 11626
